NORAD_CAT_ID,OBJECT_NAME,OBJECT_TYPE,EPOCH,MEAN_MOTION,ECCENTRICITY,INCLINATION,RA_OF_ASC_NODE,ARG_OF_PERICENTER,MEAN_ANOMALY,BSTAR,MEAN_MOTION_DOT,MEAN_MOTION_DDOT,TLE_LINE0,TLE_LINE1,TLE_LINE2,SEMIMAJOR_AXIS,PERIOD,APOGEE,PERIGEE,DECAYED
53919.0,STARLINK-5023,PAYLOAD,2024-08-19 14:06:32,15.08851819,0.0001464,53.2169,339.8029,83.4063,276.7096,0.00020439,2.967e-05,0.0,0 STARLINK-5023,1 53919U 22119AK  24232.58787236  .00002967  00000-0  20439-3 0  9996,2 53919  53.2169 339.8029 0001464  83.4063 276.7096 15.08851819106211,6917.844,95.437,540.722,538.696,0.0
53919.0,STARLINK-5023,PAYLOAD,2024-08-20 12:21:56,15.08846371,0.0001535,53.216,335.6396,93.0017,267.1151,6.8559e-05,8.03e-06,0.0,0 STARLINK-5023,1 53919U 22119AK  24233.51523517  .00000803  00000-0  68559-4 0  9993,2 53919  53.2160 335.6396 0001535  93.0017 267.1151 15.08846371105939,6917.861,95.437,540.788,538.664,0.0
53919.0,STARLINK-5023,PAYLOAD,2024-08-21 12:12:43,15.0883632,0.0001448,53.2171,331.1807,100.0243,260.0912,8.6022e-05,1.081e-05,0.0,0 STARLINK-5023,1 53919U 22119AK  24234.50884129  .00001081  00000-0  86022-4 0  9996,2 53919  53.2171 331.1807 0001448 100.0243 260.0912 15.08836320106089,6917.892,95.438,540.758,538.755,0.0
